STARLINK-37695          
1 69824U 26154F   26194.25003472 -.00520774  96752-4 -14755-2 0  9996
2 69824  53.1600 302.7733 0000839  69.3282 339.6527 15.92600401  2354
STARLINK-37690          
1 69825U 26154G   26194.25003472 -.01815480  90797-3 -54031-2 0  9992
2 69825  53.1599 302.7686 0000720  79.1439 332.0449 15.91903419  2355
STARLINK-37710          
1 69826U 26154H   26194.25003472 -.01833109  92549-3 -54212-2 0  9999
2 69826  53.1600 302.7620 0000744  82.3778 331.9484 15.92028079  2353
STARLINK-38031          
1 69827U 26154J   26194.25003472 -.01833029  92654-3 -53865-2 0  9991
2 69827  53.1601 302.7558 0000766  75.4335 341.8012 15.92150777  2359
STARLINK-38001          
1 69828U 26154K   26194.25003472 -.01837501  93192-3 -53640-2 0  9990
2 69828  53.1600 302.7501 0000677  80.2722 339.8237 15.92278885  2359
STARLINK-37622          
1 69829U 26154L   26194.25003472 -.01839039  93452-3 -53340-2 0  9995
2 69829  53.1599 302.7441 0000658  79.3265 343.6578 15.92402974  2359
STARLINK-37621          
1 69830U 26154M   26194.25003472 -.01836951  93379-3 -52911-2 0  9998
2 69830  53.1600 302.7385 0000816  84.5386 341.1139 15.92535440  2350
STARLINK-37918          
1 69831U 26154N   26194.25003472 -.01828016  92662-3 -52287-2 0  9992
2 69831  53.1599 302.7330 0000836  80.2024 348.0666 15.92668148  2355
STARLINK-37887          
1 69832U 26154P   26194.25003472 -.01814526  91517-3 -51551-2 0  9995
2 69832  53.1599 302.7276 0000785  75.9260 354.9341 15.92795581  2359
STARLINK-37624          
1 69833U 26154Q   26194.25003472 -.01835446  93589-3 -51839-2 0  9990
2 69833  53.1598 302.7212 0000746  77.3844 356.6456 15.92911205  2359
STARLINK-37769          
1 69834U 26154R   26194.25003472 -.01840962  94221-3 -51680-2 0  9998
2 69834  53.1597 302.7149 0000858  80.4232 356.6170 15.93027563  2357
STARLINK-37247          
1 69835U 26154S   26194.25003472 -.01842919  94518-3 -51416-2 0  9999
2 69835  53.1598 302.7088 0000804  78.3065   1.6480 15.93145438  2456
STARLINK-37569          
1 69836U 26154T   26194.25003472 -.01833385  93733-3 -50811-2 0  9993
2 69836  53.1596 302.7038 0000726  78.3117   4.1981 15.93270917  2355
STARLINK-37587          
1 69837U 26154U   26194.25003472 -.01856779  96069-3 -51171-2 0  9991
2 69837  53.1597 302.6967 0001024  61.9231  23.9036 15.93380310  2320
STARLINK-37590          
1 69838U 26154V   26194.25003472 -.01859494  96449-3 -50918-2 0  9999
2 69838  53.1596 302.6910 0001032  61.6430  26.9574 15.93502156  2194
STARLINK-37589          
1 69839U 26154W   26194.25003472 -.01867884  97372-3 -50841-2 0  9993
2 69839  53.1595 302.6848 0000829  78.6014  12.9846 15.93617691  2326
STARLINK-37487          
1 69840U 26154X   26194.25003472 -.01532457  72351-3 -29100-2 0  9994
2 69840  53.1582 302.4758 0000857  80.6364 110.8415 16.00115394  2326
STARLINK-37433          
1 69841U 26154Y   26194.25003472 -.01546305  73650-3 -29173-2 0  9995
2 69841  53.1582 302.4641 0000843  82.4087 114.7069 16.00230606  2451
STARLINK-37588          
1 69842U 26154Z   26194.25003472 -.01574821  76276-3 -29500-2 0  9991
2 69842  53.1580 302.4514 0000894  78.1597 125.0102 16.00358906  2359
STARLINK-37579          
1 69843U 26154AA  26194.25003472 -.01590020  77761-3 -29544-2 0  9999
2 69843  53.1580 302.4341 0000819  73.3654 137.9913 16.00502617  2358
STARLINK-37584          
1 69844U 26154AB  26194.25003472 -.01620712  80665-3 -29902-2 0  9997
2 69844  53.1581 302.4237 0000831  81.7358 134.4851 16.00629892  2350
STARLINK-37606          
1 69845U 26154AC  26194.25003472 -.01644068  82950-3 -30103-2 0  9992
2 69845  53.1578 302.4112 0000836  77.2062 144.9362 16.00765341  2359
STARLINK-37603          
1 69846U 26154AD  26194.25003472 -.01684496  86923-3 -30564-2 0  9997
2 69846  53.1580 302.3959 0000883  78.5072 150.8070 16.00928712  2353
STARLINK-37595          
1 69847U 26154AE  26194.25003472 -.01686802  87246-3 -30422-2 0  9993
2 69847  53.1578 302.3853 0000738  77.4537 156.7930 16.01032962  2351
CHUANG XIN 26 (CX-26)   
1 69972U 26158A   26194.30405707 -.00000270  00000+0 -46547-4 0  9993
2 69972  49.9860 288.3997 0004884 293.5714  66.4686 14.25122245   433
CZ-10B DEB              
1 69973U 26158B   26194.30459872  .00000104  00000+0  11233-3 0  9993
2 69973  49.9847 288.4027 0005699 304.8625  55.1752 14.24885951   434
CZ-10B R/B              
1 69974U 26158C   26191.83284742  .00000207  00000+0  64180-4 0  9995
2 69974  49.9651 298.6353 0197627 184.6042 175.3074 14.64294088    85
