OBJECT_NAME,OBJECT_ID,EPOCH,MEAN_MOTION,ECCENTRICITY,INCLINATION,RA_OF_ASC_NODE,ARG_OF_PERICENTER,MEAN_ANOMALY,EPHEMERIS_TYPE,CLASSIFICATION_TYPE,NORAD_CAT_ID,ELEMENT_SET_NO,REV_AT_EPOCH,BSTAR,MEAN_MOTION_DOT,MEAN_MOTION_DDOT
STARLINK-37695,2026-154F,2026-07-13T06:00:02.999808,15.92600401,.00008397,53.1600,302.7733,69.3282,339.6527,0,U,69824,999,235,-.14754793E-2,-.520774E-2,.96752228E-4
STARLINK-37690,2026-154G,2026-07-13T06:00:02.999808,15.91903419,.00007201,53.1599,302.7686,79.1439,332.0449,0,U,69825,999,235,-.54031345E-2,-.181548E-1,.9079715E-3
STARLINK-37710,2026-154H,2026-07-13T06:00:02.999808,15.92028079,.00007444,53.1600,302.7620,82.3778,331.9484,0,U,69826,999,235,-.54211594E-2,-.1833109E-1,.92549135E-3
STARLINK-38031,2026-154J,2026-07-13T06:00:02.999808,15.92150777,.00007666,53.1601,302.7558,75.4335,341.8012,0,U,69827,999,235,-.53864924E-2,-.1833029E-1,.92654416E-3
STARLINK-38001,2026-154K,2026-07-13T06:00:02.999808,15.92278885,.00006776,53.1600,302.7501,80.2722,339.8237,0,U,69828,999,235,-.53639969E-2,-.1837501E-1,.93191868E-3
STARLINK-37622,2026-154L,2026-07-13T06:00:02.999808,15.92402974,.00006585,53.1599,302.7441,79.3265,343.6578,0,U,69829,999,235,-.53339785E-2,-.1839039E-1,.93451762E-3
STARLINK-37621,2026-154M,2026-07-13T06:00:02.999808,15.92535440,.00008165,53.1600,302.7385,84.5386,341.1139,0,U,69830,999,235,-.52911067E-2,-.1836951E-1,.93378701E-3
STARLINK-37918,2026-154N,2026-07-13T06:00:02.999808,15.92668148,.00008368,53.1599,302.7330,80.2024,348.0666,0,U,69831,999,235,-.52286515E-2,-.1828016E-1,.92662219E-3
STARLINK-37887,2026-154P,2026-07-13T06:00:02.999808,15.92795581,.00007856,53.1599,302.7276,75.9260,354.9341,0,U,69832,999,235,-.51550878E-2,-.1814526E-1,.91516923E-3
STARLINK-37624,2026-154Q,2026-07-13T06:00:02.999808,15.92911205,.00007464,53.1598,302.7212,77.3844,356.6456,0,U,69833,999,235,-.51838591E-2,-.1835446E-1,.93588573E-3
STARLINK-37769,2026-154R,2026-07-13T06:00:02.999808,15.93027563,.00008587,53.1597,302.7149,80.4232,356.6170,0,U,69834,999,235,-.51679676E-2,-.1840962E-1,.94220552E-3
STARLINK-37247,2026-154S,2026-07-13T06:00:02.999808,15.93145438,.00008049,53.1598,302.7088,78.3065,1.6480,0,U,69835,999,245,-.51416273E-2,-.1842919E-1,.94518403E-3
STARLINK-37569,2026-154T,2026-07-13T06:00:02.999808,15.93270917,.00007269,53.1596,302.7038,78.3117,4.1981,0,U,69836,999,235,-.50810521E-2,-.1833385E-1,.93732744E-3
STARLINK-37587,2026-154U,2026-07-13T06:00:02.999808,15.93380310,.00010249,53.1597,302.6967,61.9231,23.9036,0,U,69837,999,232,-.51170679E-2,-.1856779E-1,.96068975E-3
STARLINK-37590,2026-154V,2026-07-13T06:00:02.999808,15.93502156,.0001032,53.1596,302.6910,61.6430,26.9574,0,U,69838,999,219,-.50918216E-2,-.1859494E-1,.96448981E-3
STARLINK-37589,2026-154W,2026-07-13T06:00:02.999808,15.93617691,.00008293,53.1595,302.6848,78.6014,12.9846,0,U,69839,999,232,-.50840897E-2,-.1867884E-1,.97372499E-3
STARLINK-37487,2026-154X,2026-07-13T06:00:02.999808,16.00115394,.00008576,53.1582,302.4758,80.6364,110.8415,0,U,69840,999,232,-.29099761E-2,-.1532457E-1,.72350927E-3
STARLINK-37433,2026-154Y,2026-07-13T06:00:02.999808,16.00230606,.00008432,53.1582,302.4641,82.4087,114.7069,0,U,69841,999,245,-.29173141E-2,-.1546305E-1,.73650141E-3
STARLINK-37588,2026-154Z,2026-07-13T06:00:02.999808,16.00358906,.00008943,53.1580,302.4514,78.1597,125.0102,0,U,69842,999,235,-.29500392E-2,-.1574821E-1,.7627602E-3
STARLINK-37579,2026-154AA,2026-07-13T06:00:02.999808,16.00502617,.00008193,53.1580,302.4341,73.3654,137.9913,0,U,69843,999,235,-.29544142E-2,-.159002E-1,.77760688E-3
STARLINK-37584,2026-154AB,2026-07-13T06:00:02.999808,16.00629892,.00008311,53.1581,302.4237,81.7358,134.4851,0,U,69844,999,235,-.29902354E-2,-.1620712E-1,.80665268E-3
STARLINK-37606,2026-154AC,2026-07-13T06:00:02.999808,16.00765341,.00008368,53.1578,302.4112,77.2062,144.9362,0,U,69845,999,235,-.3010307E-2,-.1644068E-1,.82950341E-3
STARLINK-37603,2026-154AD,2026-07-13T06:00:02.999808,16.00928712,.00008832,53.1580,302.3959,78.5072,150.8070,0,U,69846,999,235,-.30563519E-2,-.1684496E-1,.86923149E-3
STARLINK-37595,2026-154AE,2026-07-13T06:00:02.999808,16.01032962,.00007389,53.1578,302.3853,77.4537,156.7930,0,U,69847,999,235,-.30422151E-2,-.1686802E-1,.8724593E-3
CHUANG XIN 26 (CX-26),2026-158A,2026-07-13T07:17:50.530848,14.25122245,.00048848,49.9860,288.3997,293.5714,66.4686,0,U,69972,999,43,-.46547489E-4,-.27E-5,0
CZ-10B DEB,2026-158B,2026-07-13T07:18:37.329408,14.24885951,.00056996,49.9847,288.4027,304.8625,55.1752,0,U,69973,999,43,.11233346E-3,.104E-5,0
CZ-10B R/B,2026-158C,2026-07-10T19:59:18.017088,14.64294088,.01976271,49.9651,298.6353,184.6042,175.3074,0,U,69974,999,8,.64179561E-4,.207E-5,0
